STARLINK-36438          
1 67625U 26020J   26058.28188196  .00366011  00000+0  21429-2 0  9996
2 67625  42.9990 205.4141 0002393 251.6668 108.3942 15.76493200  4445
STARLINK-36436          
1 67626U 26020K   26058.12670097  .00366076  00000+0  21366-2 0  9997
2 67626  42.9981 205.9530 0001459 311.1499  48.9245 15.76563854  4425
STARLINK-36502          
1 67627U 26020L   26058.11573915  .00355514  00000+0  20844-2 0  9993
2 67627  42.9991 205.8632 0003867 270.3720  89.6707 15.76488246  4423
STARLINK-36532          
1 67628U 26020M   26058.00003472 -.00070268  00000+0 -43196-3 0  9996
2 67628  42.9995 206.5354 0001906 287.4163 147.6472 15.76371607  5673
STARLINK-36367          
1 67629U 26020N   26057.82083898  .00173749  00000+0  10464-2 0  9993
2 67629  42.9988 207.9689 0001596 293.8109  66.2593 15.76405660  4371
STARLINK-36416          
1 67630U 26020P   26057.77280659  .00331386  00000+0  19493-2 0  9997
2 67630  42.9993 208.4758 0003339 296.4648  63.5879 15.76481968  4367
STARLINK-36527          
1 67631U 26020Q   26058.25002315  .00131075  00000+0  79859-3 0  9999
2 67631  42.9992 204.9219 0001712 252.5660 200.2099 15.76278896  5718
STARLINK-36633          
1 67632U 26020R   26058.12232435  .00286654  00000+0  16921-2 0  9998
2 67632  42.9987 205.9173 0001174 340.6803  19.4022 15.76530178  4420
STARLINK-36637          
1 67633U 26020S   26057.77061831  .00323200  00000+0  19037-2 0  9999
2 67633  42.9981 208.4575 0003104 296.0786  63.9764 15.76475768  4361
STARLINK-36617          
1 67634U 26020T   26058.00003472 -.00041421  00000+0 -25261-3 0  9995
2 67634  42.9990 206.4735 0001636 279.8732 180.0663 15.76365823  5670
STARLINK-36627          
1 67635U 26020U   26057.82740815  .00190236  00000+0  11418-2 0  9999
2 67635  42.9972 208.0194 0001830 268.0316  92.0344 15.76432281  4379
STARLINK-36624          
1 67636U 26020V   26058.12450589  .00262390  00000+0  15604-2 0  9992
2 67636  42.9983 205.9359 0002033 296.0783  63.9877 15.76431982  4427
