CCSDS_OMM_VERS = 2.0
CREATION_DATE  = 
ORIGINATOR     = 

OBJECT_NAME    = STARLINK-36438
OBJECT_ID      = 2026-020J
CENTER_NAME    = EARTH
REF_FRAME      = TEME
TIME_SYSTEM    = UTC
MEAN_ELEMENT_THEORY = SGP/SGP4

EPOCH          = 2026-02-27T06:45:54.601344
MEAN_MOTION    = 15.76493200
ECCENTRICITY   = .00023933
INCLINATION    = 42.9990
RA_OF_ASC_NODE = 205.4141
ARG_OF_PERICENTER = 251.6668
MEAN_ANOMALY   = 108.3942

EPHEMERIS_TYPE = 0
CLASSIFICATION_TYPE = U
NORAD_CAT_ID   = 67625
ELEMENT_SET_NO = 999
REV_AT_EPOCH   = 444
BSTAR          = .21429125E-2
MEAN_MOTION_DOT = .366011E-2
MEAN_MOTION_DDOT = 0

CCSDS_OMM_VERS = 2.0
CREATION_DATE  = 
ORIGINATOR     = 

OBJECT_NAME    = STARLINK-36436
OBJECT_ID      = 2026-020K
CENTER_NAME    = EARTH
REF_FRAME      = TEME
TIME_SYSTEM    = UTC
MEAN_ELEMENT_THEORY = SGP/SGP4

EPOCH          = 2026-02-27T03:02:26.963808
MEAN_MOTION    = 15.76563854
ECCENTRICITY   = .00014594
INCLINATION    = 42.9981
RA_OF_ASC_NODE = 205.9530
ARG_OF_PERICENTER = 311.1499
MEAN_ANOMALY   = 48.9245

EPHEMERIS_TYPE = 0
CLASSIFICATION_TYPE = U
NORAD_CAT_ID   = 67626
ELEMENT_SET_NO = 999
REV_AT_EPOCH   = 442
BSTAR          = .21365958E-2
MEAN_MOTION_DOT = .366076E-2
MEAN_MOTION_DDOT = 0

CCSDS_OMM_VERS = 2.0
CREATION_DATE  = 
ORIGINATOR     = 

OBJECT_NAME    = STARLINK-36502
OBJECT_ID      = 2026-020L
CENTER_NAME    = EARTH
REF_FRAME      = TEME
TIME_SYSTEM    = UTC
MEAN_ELEMENT_THEORY = SGP/SGP4

EPOCH          = 2026-02-27T02:46:39.862560
MEAN_MOTION    = 15.76488246
ECCENTRICITY   = .00038678
INCLINATION    = 42.9991
RA_OF_ASC_NODE = 205.8632
ARG_OF_PERICENTER = 270.3720
MEAN_ANOMALY   = 89.6707

EPHEMERIS_TYPE = 0
CLASSIFICATION_TYPE = U
NORAD_CAT_ID   = 67627
ELEMENT_SET_NO = 999
REV_AT_EPOCH   = 442
BSTAR          = .20843525E-2
MEAN_MOTION_DOT = .355514E-2
MEAN_MOTION_DDOT = 0

CCSDS_OMM_VERS = 2.0
CREATION_DATE  = 
ORIGINATOR     = 

OBJECT_NAME    = STARLINK-36532
OBJECT_ID      = 2026-020M
CENTER_NAME    = EARTH
REF_FRAME      = TEME
TIME_SYSTEM    = UTC
MEAN_ELEMENT_THEORY = SGP/SGP4

EPOCH          = 2026-02-27T00:00:02.999808
MEAN_MOTION    = 15.76371607
ECCENTRICITY   = .0001906
INCLINATION    = 42.9995
RA_OF_ASC_NODE = 206.5354
ARG_OF_PERICENTER = 287.4163
MEAN_ANOMALY   = 147.6472

EPHEMERIS_TYPE = 0
CLASSIFICATION_TYPE = U
NORAD_CAT_ID   = 67628
ELEMENT_SET_NO = 999
REV_AT_EPOCH   = 567
BSTAR          = -.43196038E-3
MEAN_MOTION_DOT = -.70268E-3
MEAN_MOTION_DDOT = 0

CCSDS_OMM_VERS = 2.0
CREATION_DATE  = 
ORIGINATOR     = 

OBJECT_NAME    = STARLINK-36367
OBJECT_ID      = 2026-020N
CENTER_NAME    = EARTH
REF_FRAME      = TEME
TIME_SYSTEM    = UTC
MEAN_ELEMENT_THEORY = SGP/SGP4

EPOCH          = 2026-02-26T19:42:00.487872
MEAN_MOTION    = 15.76405660
ECCENTRICITY   = .00015964
INCLINATION    = 42.9988
RA_OF_ASC_NODE = 207.9689
ARG_OF_PERICENTER = 293.8109
MEAN_ANOMALY   = 66.2593

EPHEMERIS_TYPE = 0
CLASSIFICATION_TYPE = U
NORAD_CAT_ID   = 67629
ELEMENT_SET_NO = 999
REV_AT_EPOCH   = 437
BSTAR          = .10464145E-2
MEAN_MOTION_DOT = .173749E-2
MEAN_MOTION_DDOT = 0

CCSDS_OMM_VERS = 2.0
CREATION_DATE  = 
ORIGINATOR     = 

OBJECT_NAME    = STARLINK-36416
OBJECT_ID      = 2026-020P
CENTER_NAME    = EARTH
REF_FRAME      = TEME
TIME_SYSTEM    = UTC
MEAN_ELEMENT_THEORY = SGP/SGP4

EPOCH          = 2026-02-26T18:32:50.489376
MEAN_MOTION    = 15.76481968
ECCENTRICITY   = .00033396
INCLINATION    = 42.9993
RA_OF_ASC_NODE = 208.4758
ARG_OF_PERICENTER = 296.4648
MEAN_ANOMALY   = 63.5879

EPHEMERIS_TYPE = 0
CLASSIFICATION_TYPE = U
NORAD_CAT_ID   = 67630
ELEMENT_SET_NO = 999
REV_AT_EPOCH   = 436
BSTAR          = .19493268E-2
MEAN_MOTION_DOT = .331386E-2
MEAN_MOTION_DDOT = 0

CCSDS_OMM_VERS = 2.0
CREATION_DATE  = 
ORIGINATOR     = 

OBJECT_NAME    = STARLINK-36527
OBJECT_ID      = 2026-020Q
CENTER_NAME    = EARTH
REF_FRAME      = TEME
TIME_SYSTEM    = UTC
MEAN_ELEMENT_THEORY = SGP/SGP4

EPOCH          = 2026-02-27T06:00:02.000160
MEAN_MOTION    = 15.76278896
ECCENTRICITY   = .00017128
INCLINATION    = 42.9992
RA_OF_ASC_NODE = 204.9219
ARG_OF_PERICENTER = 252.5660
MEAN_ANOMALY   = 200.2099

EPHEMERIS_TYPE = 0
CLASSIFICATION_TYPE = U
NORAD_CAT_ID   = 67631
ELEMENT_SET_NO = 999
REV_AT_EPOCH   = 571
BSTAR          = .79858652E-3
MEAN_MOTION_DOT = .131075E-2
MEAN_MOTION_DDOT = 0

CCSDS_OMM_VERS = 2.0
CREATION_DATE  = 
ORIGINATOR     = 

OBJECT_NAME    = STARLINK-36633
OBJECT_ID      = 2026-020R
CENTER_NAME    = EARTH
REF_FRAME      = TEME
TIME_SYSTEM    = UTC
MEAN_ELEMENT_THEORY = SGP/SGP4

EPOCH          = 2026-02-27T02:56:08.823840
MEAN_MOTION    = 15.76530178
ECCENTRICITY   = .00011741
INCLINATION    = 42.9987
RA_OF_ASC_NODE = 205.9173
ARG_OF_PERICENTER = 340.6803
MEAN_ANOMALY   = 19.4022

EPHEMERIS_TYPE = 0
CLASSIFICATION_TYPE = U
NORAD_CAT_ID   = 67632
ELEMENT_SET_NO = 999
REV_AT_EPOCH   = 442
BSTAR          = .16921301E-2
MEAN_MOTION_DOT = .286654E-2
MEAN_MOTION_DDOT = 0

CCSDS_OMM_VERS = 2.0
CREATION_DATE  = 
ORIGINATOR     = 

OBJECT_NAME    = STARLINK-36637
OBJECT_ID      = 2026-020S
CENTER_NAME    = EARTH
REF_FRAME      = TEME
TIME_SYSTEM    = UTC
MEAN_ELEMENT_THEORY = SGP/SGP4

EPOCH          = 2026-02-26T18:29:41.421984
MEAN_MOTION    = 15.76475768
ECCENTRICITY   = .00031042
INCLINATION    = 42.9981
RA_OF_ASC_NODE = 208.4575
ARG_OF_PERICENTER = 296.0786
MEAN_ANOMALY   = 63.9764

EPHEMERIS_TYPE = 0
CLASSIFICATION_TYPE = U
NORAD_CAT_ID   = 67633
ELEMENT_SET_NO = 999
REV_AT_EPOCH   = 436
BSTAR          = .19036563E-2
MEAN_MOTION_DOT = .3232E-2
MEAN_MOTION_DDOT = 0

CCSDS_OMM_VERS = 2.0
CREATION_DATE  = 
ORIGINATOR     = 

OBJECT_NAME    = STARLINK-36617
OBJECT_ID      = 2026-020T
CENTER_NAME    = EARTH
REF_FRAME      = TEME
TIME_SYSTEM    = UTC
MEAN_ELEMENT_THEORY = SGP/SGP4

EPOCH          = 2026-02-27T00:00:02.999808
MEAN_MOTION    = 15.76365823
ECCENTRICITY   = .00016367
INCLINATION    = 42.9990
RA_OF_ASC_NODE = 206.4735
ARG_OF_PERICENTER = 279.8732
MEAN_ANOMALY   = 180.0663

EPHEMERIS_TYPE = 0
CLASSIFICATION_TYPE = U
NORAD_CAT_ID   = 67634
ELEMENT_SET_NO = 999
REV_AT_EPOCH   = 567
BSTAR          = -.25260599E-3
MEAN_MOTION_DOT = -.41421E-3
MEAN_MOTION_DDOT = 0

CCSDS_OMM_VERS = 2.0
CREATION_DATE  = 
ORIGINATOR     = 

OBJECT_NAME    = STARLINK-36627
OBJECT_ID      = 2026-020U
CENTER_NAME    = EARTH
REF_FRAME      = TEME
TIME_SYSTEM    = UTC
MEAN_ELEMENT_THEORY = SGP/SGP4

EPOCH          = 2026-02-26T19:51:28.064160
MEAN_MOTION    = 15.76432281
ECCENTRICITY   = .00018304
INCLINATION    = 42.9972
RA_OF_ASC_NODE = 208.0194
ARG_OF_PERICENTER = 268.0316
MEAN_ANOMALY   = 92.0344

EPHEMERIS_TYPE = 0
CLASSIFICATION_TYPE = U
NORAD_CAT_ID   = 67635
ELEMENT_SET_NO = 999
REV_AT_EPOCH   = 437
BSTAR          = .11418315E-2
MEAN_MOTION_DOT = .190236E-2
MEAN_MOTION_DDOT = 0

CCSDS_OMM_VERS = 2.0
CREATION_DATE  = 
ORIGINATOR     = 

OBJECT_NAME    = STARLINK-36624
OBJECT_ID      = 2026-020V
CENTER_NAME    = EARTH
REF_FRAME      = TEME
TIME_SYSTEM    = UTC
MEAN_ELEMENT_THEORY = SGP/SGP4

EPOCH          = 2026-02-27T02:59:17.308896
MEAN_MOTION    = 15.76431982
ECCENTRICITY   = .00020332
INCLINATION    = 42.9983
RA_OF_ASC_NODE = 205.9359
ARG_OF_PERICENTER = 296.0783
MEAN_ANOMALY   = 63.9877

EPHEMERIS_TYPE = 0
CLASSIFICATION_TYPE = U
NORAD_CAT_ID   = 67636
ELEMENT_SET_NO = 999
REV_AT_EPOCH   = 442
BSTAR          = .15603738E-2
MEAN_MOTION_DOT = .26239E-2
MEAN_MOTION_DDOT = 0

